STARLINK-37203
1 68388U 26063J   26105.86109047  .00135904  00000+0  69734-3 0  9992
2 68388  97.2830 247.4843 0001125  65.5300 294.6086 15.80876349  3496
STARLINK-37197
1 68389U 26063K   26105.82070515  .00148414  00000+0  97671-3 0  9997
2 68389  97.2846 247.3857 0000631  55.4950 304.6375 15.75237422  3487
STARLINK-37193
1 68390U 26063L   26105.83335647 -.01722810  00000+0 -12227-1 0  9993
2 68390  97.2842 247.6845 0001493  88.3983 296.2753 15.76709157  2769
STARLINK-37216
1 68391U 26063M   26105.85926450 -.00687152  00000+0 -42267-2 0  9990
2 68391  97.2834 247.4874 0001195  35.8063 324.3284 15.78923776  3496
STARLINK-37215
1 68392U 26063N   26105.85808448  .00029848  00000+0  15587-3 0  9993
2 68392  97.2834 247.4890 0001549  94.6672 265.4773 15.80837722  3493
STARLINK-37184
1 68393U 26063P   26105.85732978  .00246767  00000+0  12465-2 0  9990
2 68393  97.2832 247.4900 0001806  49.8128 310.3298 15.80928969  3494
STARLINK-37157
1 68394U 26063Q   26105.81294265  .00151316  00000+0  99545-3 0  9999
2 68394  97.2850 247.3964 0001259  74.6822 285.4582 15.75237322  3480
STARLINK-37172
1 68395U 26063R   26105.83335647  .00052138  00000+0  34896-3 0  9992
2 68395  97.2848 247.4375 0001244  98.3803  63.4423 15.75146226  4437
STARLINK-37190
1 68396U 26063S   26105.85583002  .00061792  00000+0  32058-3 0  9999
2 68396  97.2830 247.4904 0001406  85.3746 274.7683 15.80848122  3499
STARLINK-37194
1 68397U 26063T   26105.85433147  .00175669  00000+0  89782-3 0  9999
2 68397  97.2834 247.4931 0001428  88.5242 271.6190 15.80857195  3493
STARLINK-37220
1 68398U 26063U   26105.15677696  .00207273  00000+0  10974-2 0  9995
2 68398  97.2830 246.7583 0001113  50.0650 310.0715 15.79996842  3383
STARLINK-37187
1 68399U 26063V   26105.85357500  .00101887  00000+0  52529-3 0  9999
2 68399  97.2829 247.4937 0001208  86.9401 273.2005 15.80865197  3494
STARLINK-36235
1 68400U 26063W   26105.85207257  .00229950  00000+0  11645-2 0  9990
2 68400  97.2831 247.4956 0001525  62.3894 297.7529 15.80917475  3496
STARLINK-37175
1 68401U 26063X   26105.83335647  .00001507  00000+0  10981-4 0  9994
2 68401  97.2848 247.4471 0001229  88.9144  94.8936 15.75173730  4435
STARLINK-36360
1 68402U 26063Y   26105.85057094  .00121806  00000+0  62644-3 0  9991
2 68402  97.2832 247.4980 0001381  82.8371 277.3054 15.80863719  3491
STARLINK-37218
1 68403U 26063Z   26105.84906339  .00241391  00000+0  12203-2 0  9993
2 68403  97.2832 247.5012 0002000  45.8369 314.3064 15.80924917  3495
STARLINK-37188
1 68404U 26063AA  26105.84982035  .00171102  00000+0  87410-3 0  9996
2 68404  97.2834 247.4995 0001879  56.8639 303.2810 15.80877991  3497
