[{"OBJECT_NAME":"STARLINK-37203","OBJECT_ID":"2026-063J","EPOCH":"2026-04-15T20:39:58.216608","MEAN_MOTION":15.80876349,"ECCENTRICITY":0.0001125,"INCLINATION":97.283,"RA_OF_ASC_NODE":247.4843,"ARG_OF_PERICENTER":65.53,"MEAN_ANOMALY":294.6086,"EPHEMERIS_TYPE":0,"CLASSIFICATION_TYPE":"U","NORAD_CAT_ID":68388,"ELEMENT_SET_NO":999,"REV_AT_EPOCH":349,"BSTAR":0.00069734,"MEAN_MOTION_DOT":0.00135904,"MEAN_MOTION_DDOT":0},{"OBJECT_NAME":"STARLINK-37197","OBJECT_ID":"2026-063K","EPOCH":"2026-04-15T19:41:48.924960","MEAN_MOTION":15.75237422,"ECCENTRICITY":6.31e-5,"INCLINATION":97.2846,"RA_OF_ASC_NODE":247.3857,"ARG_OF_PERICENTER":55.495,"MEAN_ANOMALY":304.6375,"EPHEMERIS_TYPE":0,"CLASSIFICATION_TYPE":"U","NORAD_CAT_ID":68389,"ELEMENT_SET_NO":999,"REV_AT_EPOCH":348,"BSTAR":0.00097671,"MEAN_MOTION_DOT":0.00148414,"MEAN_MOTION_DDOT":0},{"OBJECT_NAME":"STARLINK-37193","OBJECT_ID":"2026-063L","EPOCH":"2026-04-15T20:00:01.999008","MEAN_MOTION":15.76709157,"ECCENTRICITY":0.0001493,"INCLINATION":97.2842,"RA_OF_ASC_NODE":247.6845,"ARG_OF_PERICENTER":88.3983,"MEAN_ANOMALY":296.2753,"EPHEMERIS_TYPE":0,"CLASSIFICATION_TYPE":"U","NORAD_CAT_ID":68390,"ELEMENT_SET_NO":999,"REV_AT_EPOCH":276,"BSTAR":-0.012227,"MEAN_MOTION_DOT":-0.0172281,"MEAN_MOTION_DDOT":0},{"OBJECT_NAME":"STARLINK-37216","OBJECT_ID":"2026-063M","EPOCH":"2026-04-15T20:37:20.452800","MEAN_MOTION":15.78923776,"ECCENTRICITY":0.0001195,"INCLINATION":97.2834,"RA_OF_ASC_NODE":247.4874,"ARG_OF_PERICENTER":35.8063,"MEAN_ANOMALY":324.3284,"EPHEMERIS_TYPE":0,"CLASSIFICATION_TYPE":"U","NORAD_CAT_ID":68391,"ELEMENT_SET_NO":999,"REV_AT_EPOCH":349,"BSTAR":-0.0042267,"MEAN_MOTION_DOT":-0.00687152,"MEAN_MOTION_DDOT":0},{"OBJECT_NAME":"STARLINK-37215","OBJECT_ID":"2026-063N","EPOCH":"2026-04-15T20:35:38.499072","MEAN_MOTION":15.80837722,"ECCENTRICITY":0.0001549,"INCLINATION":97.2834,"RA_OF_ASC_NODE":247.489,"ARG_OF_PERICENTER":94.6672,"MEAN_ANOMALY":265.4773,"EPHEMERIS_TYPE":0,"CLASSIFICATION_TYPE":"U","NORAD_CAT_ID":68392,"ELEMENT_SET_NO":999,"REV_AT_EPOCH":349,"BSTAR":0.00015587,"MEAN_MOTION_DOT":0.00029848,"MEAN_MOTION_DDOT":0},{"OBJECT_NAME":"STARLINK-37184","OBJECT_ID":"2026-063P","EPOCH":"2026-04-15T20:34:33.292992","MEAN_MOTION":15.80928969,"ECCENTRICITY":0.0001806,"INCLINATION":97.2832,"RA_OF_ASC_NODE":247.49,"ARG_OF_PERICENTER":49.8128,"MEAN_ANOMALY":310.3298,"EPHEMERIS_TYPE":0,"CLASSIFICATION_TYPE":"U","NORAD_CAT_ID":68393,"ELEMENT_SET_NO":999,"REV_AT_EPOCH":349,"BSTAR":0.0012465,"MEAN_MOTION_DOT":0.00246767,"MEAN_MOTION_DDOT":0},{"OBJECT_NAME":"STARLINK-37157","OBJECT_ID":"2026-063Q","EPOCH":"2026-04-15T19:30:38.244960","MEAN_MOTION":15.75237322,"ECCENTRICITY":0.0001259,"INCLINATION":97.285,"RA_OF_ASC_NODE":247.3964,"ARG_OF_PERICENTER":74.6822,"MEAN_ANOMALY":285.4582,"EPHEMERIS_TYPE":0,"CLASSIFICATION_TYPE":"U","NORAD_CAT_ID":68394,"ELEMENT_SET_NO":999,"REV_AT_EPOCH":348,"BSTAR":0.00099545,"MEAN_MOTION_DOT":0.00151316,"MEAN_MOTION_DDOT":0},{"OBJECT_NAME":"STARLINK-37172","OBJECT_ID":"2026-063R","EPOCH":"2026-04-15T20:00:01.999008","MEAN_MOTION":15.75146226,"ECCENTRICITY":0.0001244,"INCLINATION":97.2848,"RA_OF_ASC_NODE":247.4375,"ARG_OF_PERICENTER":98.3803,"MEAN_ANOMALY":63.4423,"EPHEMERIS_TYPE":0,"CLASSIFICATION_TYPE":"U","NORAD_CAT_ID":68395,"ELEMENT_SET_NO":999,"REV_AT_EPOCH":443,"BSTAR":0.00034896,"MEAN_MOTION_DOT":0.00052138,"MEAN_MOTION_DDOT":0},{"OBJECT_NAME":"STARLINK-37190","OBJECT_ID":"2026-063S","EPOCH":"2026-04-15T20:32:23.713728","MEAN_MOTION":15.80848122,"ECCENTRICITY":0.0001406,"INCLINATION":97.283,"RA_OF_ASC_NODE":247.4904,"ARG_OF_PERICENTER":85.3746,"MEAN_ANOMALY":274.7683,"EPHEMERIS_TYPE":0,"CLASSIFICATION_TYPE":"U","NORAD_CAT_ID":68396,"ELEMENT_SET_NO":999,"REV_AT_EPOCH":349,"BSTAR":0.00032058,"MEAN_MOTION_DOT":0.00061792,"MEAN_MOTION_DDOT":0},{"OBJECT_NAME":"STARLINK-37194","OBJECT_ID":"2026-063T","EPOCH":"2026-04-15T20:30:14.239008","MEAN_MOTION":15.80857195,"ECCENTRICITY":0.0001428,"INCLINATION":97.2834,"RA_OF_ASC_NODE":247.4931,"ARG_OF_PERICENTER":88.5242,"MEAN_ANOMALY":271.619,"EPHEMERIS_TYPE":0,"CLASSIFICATION_TYPE":"U","NORAD_CAT_ID":68397,"ELEMENT_SET_NO":999,"REV_AT_EPOCH":349,"BSTAR":0.00089782,"MEAN_MOTION_DOT":0.00175669,"MEAN_MOTION_DDOT":0},{"OBJECT_NAME":"STARLINK-37220","OBJECT_ID":"2026-063U","EPOCH":"2026-04-15T03:45:45.529344","MEAN_MOTION":15.79996842,"ECCENTRICITY":0.00011135,"INCLINATION":97.283,"RA_OF_ASC_NODE":246.7583,"ARG_OF_PERICENTER":50.065,"MEAN_ANOMALY":310.0715,"EPHEMERIS_TYPE":0,"CLASSIFICATION_TYPE":"U","NORAD_CAT_ID":68398,"ELEMENT_SET_NO":999,"REV_AT_EPOCH":338,"BSTAR":0.0010974017,"MEAN_MOTION_DOT":0.00207273,"MEAN_MOTION_DDOT":0},{"OBJECT_NAME":"STARLINK-37187","OBJECT_ID":"2026-063V","EPOCH":"2026-04-15T20:29:08.880000","MEAN_MOTION":15.80865197,"ECCENTRICITY":0.0001208,"INCLINATION":97.2829,"RA_OF_ASC_NODE":247.4937,"ARG_OF_PERICENTER":86.9401,"MEAN_ANOMALY":273.2005,"EPHEMERIS_TYPE":0,"CLASSIFICATION_TYPE":"U","NORAD_CAT_ID":68399,"ELEMENT_SET_NO":999,"REV_AT_EPOCH":349,"BSTAR":0.00052529,"MEAN_MOTION_DOT":0.00101887,"MEAN_MOTION_DDOT":0},{"OBJECT_NAME":"STARLINK-36235","OBJECT_ID":"2026-063W","EPOCH":"2026-04-15T20:26:59.070048","MEAN_MOTION":15.80917475,"ECCENTRICITY":0.0001525,"INCLINATION":97.2831,"RA_OF_ASC_NODE":247.4956,"ARG_OF_PERICENTER":62.3894,"MEAN_ANOMALY":297.7529,"EPHEMERIS_TYPE":0,"CLASSIFICATION_TYPE":"U","NORAD_CAT_ID":68400,"ELEMENT_SET_NO":999,"REV_AT_EPOCH":349,"BSTAR":0.0011645,"MEAN_MOTION_DOT":0.0022995,"MEAN_MOTION_DDOT":0},{"OBJECT_NAME":"STARLINK-37175","OBJECT_ID":"2026-063X","EPOCH":"2026-04-15T20:00:01.999008","MEAN_MOTION":15.7517373,"ECCENTRICITY":0.0001229,"INCLINATION":97.2848,"RA_OF_ASC_NODE":247.4471,"ARG_OF_PERICENTER":88.9144,"MEAN_ANOMALY":94.8936,"EPHEMERIS_TYPE":0,"CLASSIFICATION_TYPE":"U","NORAD_CAT_ID":68401,"ELEMENT_SET_NO":999,"REV_AT_EPOCH":443,"BSTAR":1.0981e-5,"MEAN_MOTION_DOT":1.507e-5,"MEAN_MOTION_DDOT":0},{"OBJECT_NAME":"STARLINK-36360","OBJECT_ID":"2026-063Y","EPOCH":"2026-04-15T20:24:49.329216","MEAN_MOTION":15.80863719,"ECCENTRICITY":0.0001381,"INCLINATION":97.2832,"RA_OF_ASC_NODE":247.498,"ARG_OF_PERICENTER":82.8371,"MEAN_ANOMALY":277.3054,"EPHEMERIS_TYPE":0,"CLASSIFICATION_TYPE":"U","NORAD_CAT_ID":68402,"ELEMENT_SET_NO":999,"REV_AT_EPOCH":349,"BSTAR":0.00062644,"MEAN_MOTION_DOT":0.00121806,"MEAN_MOTION_DDOT":0},{"OBJECT_NAME":"STARLINK-37218","OBJECT_ID":"2026-063Z","EPOCH":"2026-04-15T20:22:39.076896","MEAN_MOTION":15.80924917,"ECCENTRICITY":0.0002,"INCLINATION":97.2832,"RA_OF_ASC_NODE":247.5012,"ARG_OF_PERICENTER":45.8369,"MEAN_ANOMALY":314.3064,"EPHEMERIS_TYPE":0,"CLASSIFICATION_TYPE":"U","NORAD_CAT_ID":68403,"ELEMENT_SET_NO":999,"REV_AT_EPOCH":349,"BSTAR":0.0012203,"MEAN_MOTION_DOT":0.00241391,"MEAN_MOTION_DDOT":0},{"OBJECT_NAME":"STARLINK-37188","OBJECT_ID":"2026-063AA","EPOCH":"2026-04-15T20:23:44.478240","MEAN_MOTION":15.80877991,"ECCENTRICITY":0.0001879,"INCLINATION":97.2834,"RA_OF_ASC_NODE":247.4995,"ARG_OF_PERICENTER":56.8639,"MEAN_ANOMALY":303.281,"EPHEMERIS_TYPE":0,"CLASSIFICATION_TYPE":"U","NORAD_CAT_ID":68404,"ELEMENT_SET_NO":999,"REV_AT_EPOCH":349,"BSTAR":0.0008741,"MEAN_MOTION_DOT":0.00171102,"MEAN_MOTION_DDOT":0}]
